{
    "links": {
        "self": "http://www.neowsapp.com/rest/v1/neo/3989353?api_key=iIulBulltgU6a56xZRHN4H3l9WmuAYTsLGpBGhQ2"
    },
    "id": "3989353",
    "neo_reference_id": "3989353",
    "name": "(2020 BH15)",
    "designation": "2020 BH15",
    "nasa_jpl_url": "http://ssd.jpl.nasa.gov/sbdb.cgi?sstr=3989353",
    "absolute_magnitude_h": 26.879,
    "estimated_diameter": {
        "kilometers": {
            "estimated_diameter_min": 0.0111880649,
            "estimated_diameter_max": 0.0250172736
        },
        "meters": {
            "estimated_diameter_min": 11.1880648906,
            "estimated_diameter_max": 25.017273632
        },
        "miles": {
            "estimated_diameter_min": 0.0069519391,
            "estimated_diameter_max": 0.0155450083
        },
        "feet": {
            "estimated_diameter_min": 36.7062508156,
            "estimated_diameter_max": 82.0776720228
        }
    },
    "is_potentially_hazardous_asteroid": false,
    "close_approach_data": [
        {
            "close_approach_date": "2020-01-22",
            "close_approach_date_full": "2020-Jan-22 23:39",
            "epoch_date_close_approach": 1579736340000,
            "relative_velocity": {
                "kilometers_per_second": "10.1120805695",
                "kilometers_per_hour": "36403.4900501906",
                "miles_per_hour": "22619.7130259087"
            },
            "miss_distance": {
                "astronomical": "0.0189667207",
                "lunar": "7.3780543523",
                "kilometers": "2837381.017604909",
                "miles": "1763066.8098453842"
            },
            "orbiting_body": "Earth"
        }
    ],
    "orbital_data": {
        "orbit_id": "3",
        "orbit_determination_date": "2020-02-06 05:21:05",
        "first_observation_date": "2020-01-27",
        "last_observation_date": "2020-02-06",
        "data_arc_in_days": 10,
        "observations_used": 27,
        "orbit_uncertainty": "8",
        "minimum_orbit_intersection": ".00538474",
        "jupiter_tisserand_invariant": "3.579",
        "epoch_osculation": "2458878.5",
        "eccentricity": ".5448230548018561",
        "semi_major_axis": "2.057914263596235",
        "inclination": "5.216432856612322",
        "ascending_node_longitude": "121.7438492702884",
        "orbital_period": "1078.299348575954",
        "perihelion_distance": ".936715127983422",
        "perihelion_argument": "325.9134818314931",
        "aphelion_distance": "3.179113399209048",
        "perihelion_time": "2458845.585266073071",
        "mean_anomaly": "10.98888191794154",
        "mean_motion": ".3338590535878843",
        "equinox": "J2000",
        "orbit_class": {
            "orbit_class_type": "APO",
            "orbit_class_description": "Near-Earth asteroid orbits which cross the Earth’s orbit similar to that of 1862 Apollo",
            "orbit_class_range": "a (semi-major axis) > 1.0 AU; q (perihelion) < 1.017 AU"
        }
    },
    "is_sentry_object": false
}